[{"OBJECT_NAME":"IRIDIUM 152","OBJECT_ID":"2018-047D","EPOCH":"2026-03-05T16:55:02.262720","MEAN_MOTION":14.34218074,"ECCENTRICITY":0.0002242,"INCLINATION":86.398,"RA_OF_ASC_NODE":131.6083,"ARG_OF_PERICENTER":92.8529,"MEAN_ANOMALY":267.2924,"EPHEMERIS_TYPE":0,"CLASSIFICATION_TYPE":"U","NORAD_CAT_ID":43479,"ELEMENT_SET_NO":999,"REV_AT_EPOCH":40765,"BSTAR":2.5403e-5,"MEAN_MOTION_DOT":9.1e-7,"MEAN_MOTION_DDOT":0},{"OBJECT_NAME":"IRIDIUM 147","OBJECT_ID":"2018-047E","EPOCH":"2026-03-05T17:04:09.780384","MEAN_MOTION":14.34220878,"ECCENTRICITY":0.0002241,"INCLINATION":86.3984,"RA_OF_ASC_NODE":131.6091,"ARG_OF_PERICENTER":99.3628,"MEAN_ANOMALY":260.7821,"EPHEMERIS_TYPE":0,"CLASSIFICATION_TYPE":"U","NORAD_CAT_ID":43480,"ELEMENT_SET_NO":999,"REV_AT_EPOCH":40765,"BSTAR":0.00010702,"MEAN_MOTION_DOT":3.2e-6,"MEAN_MOTION_DDOT":0},{"OBJECT_NAME":"IRIDIUM 110","OBJECT_ID":"2018-047F","EPOCH":"2026-03-05T17:13:18.303744","MEAN_MOTION":14.34217663,"ECCENTRICITY":0.0002421,"INCLINATION":86.3989,"RA_OF_ASC_NODE":131.6951,"ARG_OF_PERICENTER":88.6656,"MEAN_ANOMALY":271.4817,"EPHEMERIS_TYPE":0,"CLASSIFICATION_TYPE":"U","NORAD_CAT_ID":43481,"ELEMENT_SET_NO":999,"REV_AT_EPOCH":40764,"BSTAR":-4.2078e-6,"MEAN_MOTION_DOT":8.0e-8,"MEAN_MOTION_DDOT":0},{"OBJECT_NAME":"IRIDIUM 162","OBJECT_ID":"2018-047G","EPOCH":"2026-03-05T17:18:21.151296","MEAN_MOTION":14.4328376,"ECCENTRICITY":0.0002097,"INCLINATION":86.4506,"RA_OF_ASC_NODE":131.6335,"ARG_OF_PERICENTER":92.2899,"MEAN_ANOMALY":267.8542,"EPHEMERIS_TYPE":0,"CLASSIFICATION_TYPE":"U","NORAD_CAT_ID":43482,"ELEMENT_SET_NO":999,"REV_AT_EPOCH":41020,"BSTAR":0.00012475,"MEAN_MOTION_DOT":4.4e-6,"MEAN_MOTION_DDOT":0},{"OBJECT_NAME":"IRIDIUM 160","OBJECT_ID":"2018-061A","EPOCH":"2026-03-05T14:14:50.451072","MEAN_MOTION":14.34217863,"ECCENTRICITY":0.0002377,"INCLINATION":86.392,"RA_OF_ASC_NODE":100.1304,"ARG_OF_PERICENTER":92.1277,"MEAN_ANOMALY":268.0191,"EPHEMERIS_TYPE":0,"CLASSIFICATION_TYPE":"U","NORAD_CAT_ID":43569,"ELEMENT_SET_NO":999,"REV_AT_EPOCH":39852,"BSTAR":-2.9099e-6,"MEAN_MOTION_DOT":1.2e-7,"MEAN_MOTION_DDOT":0},{"OBJECT_NAME":"IRIDIUM 166","OBJECT_ID":"2018-061B","EPOCH":"2026-03-05T14:51:22.411296","MEAN_MOTION":14.34217654,"ECCENTRICITY":0.0002097,"INCLINATION":86.3921,"RA_OF_ASC_NODE":100.0716,"ARG_OF_PERICENTER":96.6507,"MEAN_ANOMALY":263.4928,"EPHEMERIS_TYPE":0,"CLASSIFICATION_TYPE":"U","NORAD_CAT_ID":43570,"ELEMENT_SET_NO":999,"REV_AT_EPOCH":39855,"BSTAR":-5.8184e-6,"MEAN_MOTION_DOT":3.0e-8,"MEAN_MOTION_DDOT":0},{"OBJECT_NAME":"IRIDIUM 158","OBJECT_ID":"2018-061C","EPOCH":"2026-03-05T14:05:42.355392","MEAN_MOTION":14.34217981,"ECCENTRICITY":0.0002125,"INCLINATION":86.3921,"RA_OF_ASC_NODE":100.0951,"ARG_OF_PERICENTER":89.5421,"MEAN_ANOMALY":270.6018,"EPHEMERIS_TYPE":0,"CLASSIFICATION_TYPE":"U","NORAD_CAT_ID":43571,"ELEMENT_SET_NO":999,"REV_AT_EPOCH":39851,"BSTAR":3.7713e-5,"MEAN_MOTION_DOT":1.25e-6,"MEAN_MOTION_DDOT":0},{"OBJECT_NAME":"IRIDIUM 165","OBJECT_ID":"2018-061D","EPOCH":"2026-03-05T14:42:14.395968","MEAN_MOTION":14.34218232,"ECCENTRICITY":0.0002189,"INCLINATION":86.392,"RA_OF_ASC_NODE":100.1286,"ARG_OF_PERICENTER":96.5515,"MEAN_ANOMALY":263.593,"EPHEMERIS_TYPE":0,"CLASSIFICATION_TYPE":"U","NORAD_CAT_ID":43572,"ELEMENT_SET_NO":999,"REV_AT_EPOCH":39854,"BSTAR":2.5473e-5,"MEAN_MOTION_DOT":9.1e-7,"MEAN_MOTION_DDOT":0},{"OBJECT_NAME":"IRIDIUM 155","OBJECT_ID":"2018-061E","EPOCH":"2026-03-05T15:27:54.387936","MEAN_MOTION":14.34217852,"ECCENTRICITY":0.0001951,"INCLINATION":86.3919,"RA_OF_ASC_NODE":99.989,"ARG_OF_PERICENTER":94.3377,"MEAN_ANOMALY":265.8041,"EPHEMERIS_TYPE":0,"CLASSIFICATION_TYPE":"U","NORAD_CAT_ID":43573,"ELEMENT_SET_NO":999,"REV_AT_EPOCH":39851,"BSTAR":1.7186e-6,"MEAN_MOTION_DOT":2.5e-7,"MEAN_MOTION_DDOT":0},{"OBJECT_NAME":"IRIDIUM 154","OBJECT_ID":"2018-061F","EPOCH":"2026-03-05T15:00:30.975264","MEAN_MOTION":14.34222906,"ECCENTRICITY":0.000223,"INCLINATION":86.3922,"RA_OF_ASC_NODE":100.1262,"ARG_OF_PERICENTER":98.6818,"MEAN_ANOMALY":261.463,"EPHEMERIS_TYPE":0,"CLASSIFICATION_TYPE":"U","NORAD_CAT_ID":43574,"ELEMENT_SET_NO":999,"REV_AT_EPOCH":39856,"BSTAR":0.00011117,"MEAN_MOTION_DOT":3.31e-6,"MEAN_MOTION_DDOT":0},{"OBJECT_NAME":"IRIDIUM 163","OBJECT_ID":"2018-061G","EPOCH":"2026-03-05T14:33:06.430752","MEAN_MOTION":14.34218093,"ECCENTRICITY":0.000219,"INCLINATION":86.3919,"RA_OF_ASC_NODE":100.0528,"ARG_OF_PERICENTER":91.0768,"MEAN_ANOMALY":269.0678,"EPHEMERIS_TYPE":0,"CLASSIFICATION_TYPE":"U","NORAD_CAT_ID":43575,"ELEMENT_SET_NO":999,"REV_AT_EPOCH":39853,"BSTAR":1.4968e-5,"MEAN_MOTION_DOT":6.2e-7,"MEAN_MOTION_DDOT":0},{"OBJECT_NAME":"IRIDIUM 156","OBJECT_ID":"2018-061H","EPOCH":"2026-03-05T15:37:02.383392","MEAN_MOTION":14.34218115,"ECCENTRICITY":0.0002011,"INCLINATION":86.3918,"RA_OF_ASC_NODE":100.0412,"ARG_OF_PERICENTER":93.5584,"MEAN_ANOMALY":266.5842,"EPHEMERIS_TYPE":0,"CLASSIFICATION_TYPE":"U","NORAD_CAT_ID":43576,"ELEMENT_SET_NO":999,"REV_AT_EPOCH":39853,"BSTAR":1.4336e-5,"MEAN_MOTION_DOT":6.0e-7,"MEAN_MOTION_DDOT":0},{"OBJECT_NAME":"IRIDIUM 164","OBJECT_ID":"2018-061J","EPOCH":"2026-03-05T15:09:38.479968","MEAN_MOTION":14.34218119,"ECCENTRICITY":0.000233,"INCLINATION":86.3922,"RA_OF_ASC_NODE":100.088,"ARG_OF_PERICENTER":97.632,"MEAN_ANOMALY":262.5141,"EPHEMERIS_TYPE":0,"CLASSIFICATION_TYPE":"U","NORAD_CAT_ID":43577,"ELEMENT_SET_NO":999,"REV_AT_EPOCH":39857,"BSTAR":9.5956e-5,"MEAN_MOTION_DOT":2.89e-6,"MEAN_MOTION_DDOT":0},{"OBJECT_NAME":"IRIDIUM 159","OBJECT_ID":"2018-061K","EPOCH":"2026-03-05T14:23:58.475904","MEAN_MOTION":14.3421767,"ECCENTRICITY":0.0002276,"INCLINATION":86.3919,"RA_OF_ASC_NODE":100.0397,"ARG_OF_PERICENTER":91.5573,"MEAN_ANOMALY":268.5883,"EPHEMERIS_TYPE":0,"CLASSIFICATION_TYPE":"U","NORAD_CAT_ID":43578,"ELEMENT_SET_NO":999,"REV_AT_EPOCH":39853,"BSTAR":-3.7448e-6,"MEAN_MOTION_DOT":9.0e-8,"MEAN_MOTION_DDOT":0},{"OBJECT_NAME":"IRIDIUM 180","OBJECT_ID":"2019-002A","EPOCH":"2026-03-05T19:24:38.952288","MEAN_MOTION":14.3421741,"ECCENTRICITY":0.0002199,"INCLINATION":86.3962,"RA_OF_ASC_NODE":36.7876,"ARG_OF_PERICENTER":85.3604,"MEAN_ANOMALY":274.7843,"EPHEMERIS_TYPE":0,"CLASSIFICATION_TYPE":"U","NORAD_CAT_ID":43922,"ELEMENT_SET_NO":999,"REV_AT_EPOCH":37417,"BSTAR":-8.7736e-6,"MEAN_MOTION_DOT":-5.0e-8,"MEAN_MOTION_DDOT":0},{"OBJECT_NAME":"IRIDIUM 176","OBJECT_ID":"2019-002B","EPOCH":"2026-03-05T15:27:36.555840","MEAN_MOTION":14.72249566,"ECCENTRICITY":0.0002441,"INCLINATION":86.6087,"RA_OF_ASC_NODE":36.8138,"ARG_OF_PERICENTER":89.3293,"MEAN_ANOMALY":270.8204,"EPHEMERIS_TYPE":0,"CLASSIFICATION_TYPE":"U","NORAD_CAT_ID":43923,"ELEMENT_SET_NO":999,"REV_AT_EPOCH":38401,"BSTAR":0.00022491,"MEAN_MOTION_DOT":1.443e-5,"MEAN_MOTION_DDOT":0},{"OBJECT_NAME":"IRIDIUM 168","OBJECT_ID":"2019-002C","EPOCH":"2026-03-05T10:53:10.428288","MEAN_MOTION":14.34213458,"ECCENTRICITY":0.0002203,"INCLINATION":86.3964,"RA_OF_ASC_NODE":37.0102,"ARG_OF_PERICENTER":86.1982,"MEAN_ANOMALY":273.9465,"EPHEMERIS_TYPE":0,"CLASSIFICATION_TYPE":"U","NORAD_CAT_ID":43924,"ELEMENT_SET_NO":999,"REV_AT_EPOCH":37410,"BSTAR":0.00012863,"MEAN_MOTION_DOT":3.8e-6,"MEAN_MOTION_DDOT":0}]
