IRIDIUM 152             
1 43479U 18047D   26064.70488730  .00000091  00000+0  25403-4 0  9999
2 43479  86.3980 131.6083 0002242  92.8529 267.2924 14.34218074407658
IRIDIUM 147             
1 43480U 18047E   26064.71122431  .00000320  00000+0  10702-3 0  9995
2 43480  86.3984 131.6091 0002241  99.3628 260.7821 14.34220878407653
IRIDIUM 110             
1 43481U 18047F   26064.71757296  .00000008  00000+0 -42078-5 0  9996
2 43481  86.3989 131.6951 0002421  88.6656 271.4817 14.34217663407647
IRIDIUM 162             
1 43482U 18047G   26064.72107814  .00000440  00000+0  12475-3 0  9998
2 43482  86.4506 131.6335 0002097  92.2899 267.8542 14.43283760410200
IRIDIUM 160             
1 43569U 18061A   26064.59363948  .00000012  00000+0 -29099-5 0  9995
2 43569  86.3920 100.1304 0002377  92.1277 268.0191 14.34217863398526
IRIDIUM 166             
1 43570U 18061B   26064.61900939  .00000003  00000+0 -58184-5 0  9994
2 43570  86.3921 100.0716 0002097  96.6507 263.4928 14.34217654398557
IRIDIUM 158             
1 43571U 18061C   26064.58729578  .00000125  00000+0  37713-4 0  9997
2 43571  86.3921 100.0951 0002125  89.5421 270.6018 14.34217981398516
IRIDIUM 165             
1 43572U 18061D   26064.61266662  .00000091  00000+0  25473-4 0  9994
2 43572  86.3920 100.1286 0002189  96.5515 263.5930 14.34218232398547
IRIDIUM 155             
1 43573U 18061E   26064.64437949  .00000025  00000+0  17186-5 0  9996
2 43573  86.3919  99.9890 0001951  94.3377 265.8041 14.34217852398512
IRIDIUM 154             
1 43574U 18061F   26064.62535851  .00000331  00000+0  11117-3 0  9992
2 43574  86.3922 100.1262 0002230  98.6818 261.4630 14.34222906398560
IRIDIUM 163             
1 43575U 18061G   26064.60632443  .00000062  00000+0  14968-4 0  9995
2 43575  86.3919 100.0528 0002190  91.0768 269.0678 14.34218093398532
IRIDIUM 156             
1 43576U 18061H   26064.65072203  .00000060  00000+0  14336-4 0  9990
2 43576  86.3918 100.0412 0002011  93.5584 266.5842 14.34218115398539
IRIDIUM 164             
1 43577U 18061J   26064.63169537  .00000289  00000+0  95956-4 0  9996
2 43577  86.3922 100.0880 0002330  97.6320 262.5141 14.34218119398577
IRIDIUM 159             
1 43578U 18061K   26064.59998236  .00000009  00000+0 -37448-5 0  9992
2 43578  86.3919 100.0397 0002276  91.5573 268.5883 14.34217670398535
IRIDIUM 180             
1 43922U 19002A   26064.80878417 -.00000005  00000+0 -87736-5 0  9995
2 43922  86.3962  36.7876 0002199  85.3604 274.7843 14.34217410374174
IRIDIUM 176             
1 43923U 19002B   26064.64417310  .00001443  00000+0  22491-3 0  9999
2 43923  86.6087  36.8138 0002441  89.3293 270.8204 14.72249566384017
IRIDIUM 168             
1 43924U 19002C   26064.45359292  .00000380  00000+0  12863-3 0  9994
2 43924  86.3964  37.0102 0002203  86.1982 273.9465 14.34213458374100
